NORAD_CAT_ID,OBJECT_NAME,OBJECT_TYPE,EPOCH,MEAN_MOTION,ECCENTRICITY,INCLINATION,RA_OF_ASC_NODE,ARG_OF_PERICENTER,MEAN_ANOMALY,BSTAR,MEAN_MOTION_DOT,MEAN_MOTION_DDOT,TLE_LINE0,TLE_LINE1,TLE_LINE2,SEMIMAJOR_AXIS,PERIOD,APOGEE,PERIGEE,DECAYED
53750.0,STARLINK-4612,PAYLOAD,2022-10-14 22:00:00,15.27270766,0.0001303,53.2173,79.3578,90.5821,58.9136,-0.048393,-0.01204936,0.0,0 STARLINK-4612,1 53750U 22107BC  22287.91667824 -.01204936  00000-0 -48393-1 0  9991,2 53750  53.2173  79.3578 0001303  90.5821  58.9136 15.27270766  1303,6862.111999999999,94.286,484.871,483.083,0.0
53750.0,STARLINK-4612,PAYLOAD,2022-10-15 14:00:01,15.25557065,0.0001395,53.2175,76.2823,87.6919,127.2138,-0.0510329999999999,-0.0120602,0.0,0 STARLINK-4612,1 53750U 22107BC  22288.58334491 -.01206020  00000-0 -51033-1 0  9997,2 53750  53.2175  76.2823 0001395  87.6919 127.2138 15.25557065  1300,6867.25,94.392,490.073,488.157,0.0
53750.0,STARLINK-4612,PAYLOAD,2022-10-15 22:00:01,15.24700561,0.0001341,53.2172,74.7487,102.3755,143.7527,-0.0523929999999999,-0.01206489,0.0,0 STARLINK-4612,1 53750U 22107BC  22288.91668981 -.01206489  00000-0 -52393-1 0  9997,2 53750  53.2172  74.7487 0001341 102.3755 143.7527 15.24700561  1305,6869.821999999999,94.445,492.608,490.765,0.0
53750.0,STARLINK-4612,PAYLOAD,2022-10-16 06:00:00,15.23841711,0.0001298,53.2174,73.2145,103.7699,172.4264,-0.0536419999999999,-0.01203986,0.0,0 STARLINK-4612,1 53750U 22107BC  22289.25001157 -.01203986  00000-0 -53642-1 0  9998,2 53750  53.2174  73.2145 0001298 103.7699 172.4264 15.23841711  6534,6872.403,94.498,495.16,493.376,0.0
53750.0,STARLINK-4612,PAYLOAD,2022-10-16 14:00:01,15.22985832,0.0001242999999999,53.2174,71.6854,87.1025,218.1923,-0.055117,-0.01205681,0.0,0 STARLINK-4612,1 53750U 22107BC  22289.58334491 -.01205681  00000-0 -55117-1 0  9997,2 53750  53.2174  71.6854 0001243  87.1025 218.1923 15.22985832  1303,6874.977,94.551,497.697,495.98800000000006,0.0
53750.0,STARLINK-4612,PAYLOAD,2022-10-16 22:00:00,15.22130033,0.0001145,53.2172,70.1576,92.5272,240.8364,-0.056625,-0.01207366,0.0,0 STARLINK-4612,1 53750U 22107BC  22289.91667824 -.01207366  00000-0 -56625-1 0  9990,2 53750  53.2172  70.1576 0001145  92.5272 240.8364 15.22130033  6638,6877.554,94.604,500.206,498.631,0.0
53750.0,STARLINK-4612,PAYLOAD,2022-10-17 14:00:01,15.20415167,0.0001190999999999,53.2174,67.1066,76.8331,309.5807,-0.059534,-0.01206783,0.0,0 STARLINK-4612,1 53750U 22107BC  22290.58334491 -.01206783  00000-0 -59534-1 0  9990,2 53750  53.2174  67.1066 0001191  76.8331 309.5807 15.20415167  1308,6882.724,94.711,505.409,503.77,0.0
53750.0,STARLINK-4612,PAYLOAD,2022-10-17 22:00:00,15.19564351,0.0001238,53.217,65.5845,69.3962,341.9943,-0.061505,-0.01215296,0.0,0 STARLINK-4612,1 53750U 22107BC  22290.91667824 -.01215296  00000-0 -61505-1 0  9996,2 53750  53.2170  65.5845 0001238  69.3962 341.9943 15.19564351  6797,6885.293000000002,94.764,508.011,506.306,0.0
53750.0,STARLINK-4612,PAYLOAD,2022-10-18 14:00:01,15.17843005,0.0001418,53.2173,62.5458,62.9497,35.3137,-0.064111,-0.01205783,0.0,0 STARLINK-4612,1 53750U 22107BC  22291.58334491 -.01205783  00000-0 -64111-1 0  9997,2 53750  53.2173  62.5458 0001418  62.9497  35.3137 15.17843005  1304,6890.498000000001,94.871,513.34,511.386,0.0
53750.0,STARLINK-4612,PAYLOAD,2022-10-18 22:00:00,15.16989959,0.0001391,53.217,61.0296,67.9849,52.1662,-0.0660029999999999,-0.01210718,0.0,0 STARLINK-4612,1 53750U 22107BC  22291.91667824 -.01210718  00000-0 -66003-1 0  9999,2 53750  53.2170  61.0296 0001391  67.9849  52.1662 15.16989959  1309,6893.081,94.925,515.905,513.987,0.0
53750.0,STARLINK-4612,PAYLOAD,2022-10-19 14:00:01,15.15270054,0.0001512,53.2173,58.003,67.3988,93.4445,-0.068875,-0.01203285,0.0,0 STARLINK-4612,1 53750U 22107BC  22292.58334491 -.01203285  00000-0 -68875-1 0  9994,2 53750  53.2173  58.0030 0001512  67.3988  93.4445 15.15270054  1302,6898.295999999999,95.033,521.2040000000002,519.118,0.0
53750.0,STARLINK-4612,PAYLOAD,2022-10-19 22:00:00,15.14413827,0.0001415,53.2172,56.4927,78.1756,101.4668,-0.070623,-0.01204027,0.0,0 STARLINK-4612,1 53750U 22107BC  22292.91667824 -.01204027  00000-0 -70623-1 0  9999,2 53750  53.2172  56.4927 0001415  78.1756 101.4668 15.14413827  7098,6900.896,95.086,523.737,521.784,0.0
53750.0,STARLINK-4612,PAYLOAD,2022-10-20 14:00:01,15.12697639,0.0001526,53.2173,53.4781,68.8532,145.2994,-0.0739549999999999,-0.01201384,0.0,0 STARLINK-4612,1 53750U 22107BC  22293.58334491 -.01201384  00000-0 -73955-1 0  9998,2 53750  53.2173  53.4781 0001526  68.8532 145.2994 15.12697639  7197,6906.114000000001,95.194,529.033,526.925,0.0
53750.0,STARLINK-4612,PAYLOAD,2022-10-20 22:00:00,15.11842844,0.0001460999999999,53.2171,51.9736,68.5222,161.3393,-0.075987,-0.01204812,0.0,0 STARLINK-4612,1 53750U 22107BC  22293.91667824 -.01204812  00000-0 -75987-1 0  9990,2 53750  53.2171  51.9736 0001461  68.5222 161.3393 15.11842844  1307,6908.717,95.248,531.591,529.573,0.0
53750.0,STARLINK-4612,PAYLOAD,2022-10-21 14:00:01,15.10103868,0.0001529,53.2173,48.9711,75.9345,182.2621,-0.076069,-0.01153419,0.0,0 STARLINK-4612,1 53750U 22107BC  22294.58334491 -.01153419  00000-0 -76069-1 0  9993,2 53750  53.2173  48.9711 0001529  75.9345 182.2621 15.10103868  7342,6914.02,95.358,536.942,534.828,0.0
53750.0,STARLINK-4612,PAYLOAD,2022-10-21 22:00:00,15.09214348,0.0001554999999999,53.217,47.4722,71.2794,199.516,-0.033996,-0.00514715,0.0,0 STARLINK-4612,1 53750U 22107BC  22294.91667824 -.00514715  00000-0 -33996-1 0  9990,2 53750  53.2170  47.4722 0001555  71.2794 199.5160 15.09214348  7399,6916.736,95.414,539.677,537.526,0.0
53750.0,STARLINK-4612,PAYLOAD,2022-10-22 06:00:00,15.0883612,0.0001363,53.2173,45.9743,75.33800000000002,207.2701,2.4643e-05,1.04e-06,0.0,0 STARLINK-4612,1 53750U 22107BC  22295.25001157  .00000104  00000-0  24643-4 0  9991,2 53750  53.2173  45.9743 0001363  75.3380 207.2701 15.08836120  7442,6917.892,95.438,540.7,538.814,0.0
53750.0,STARLINK-4612,PAYLOAD,2022-10-22 14:00:01,15.08859888,0.0001373,53.218,44.477,65.9018,228.154,7.4063e-05,8.92e-06,0.0,0 STARLINK-4612,1 53750U 22107BC  22295.58334491  .00000892  00000-0  74063-4 0  9992,2 53750  53.2180  44.4770 0001373  65.9018 228.1540 15.08859888  7492,6917.82,95.436,540.634,538.735,0.0
53750.0,STARLINK-4612,PAYLOAD,2022-10-22 22:00:00,15.08904303,0.0001375,53.2179,42.9802,64.3906,241.2886,-0.0037034999999999,-0.00058851,0.0,0 STARLINK-4612,1 53750U 22107BC  22295.91667824 -.00058851  00000-0 -37035-2 0  9994,2 53750  53.2179  42.9802 0001375  64.3906 241.2886 15.08904303  1306,6917.684,95.433,540.5,538.5980000000002,0.0
53750.0,STARLINK-4612,PAYLOAD,2022-10-23 08:00:01,15.08889164,0.0001443999999999,53.2184,41.1089,74.7995,335.4982,-0.0014549,-0.00023399,0.0,0 STARLINK-4612,1 53750U 22107BC  22296.33335648 -.00023399  00000-0 -14549-2 0  9991,2 53750  53.2184  41.1089 0001444  74.7995 335.4982 15.08889164  7610,6917.73,95.434,540.594,538.596,0.0
53750.0,STARLINK-4612,PAYLOAD,2022-10-23 14:00:01,15.08851145,0.0001545,53.2183,39.988,68.3224,260.6377,0.00033883,5.11e-05,0.0,0 STARLINK-4612,1 53750U 22107BC  22296.58334491  .00005110  00000-0  33883-3 0  9995,2 53750  53.2183  39.9880 0001545  68.3224 260.6377 15.08851145  1304,6917.846,95.437,540.78,538.643,0.0
53750.0,STARLINK-4612,PAYLOAD,2022-10-23 22:00:00,15.08894266,0.0001373,53.218,38.4911,66.965,273.5955,-0.0069562,-0.00109479,0.0,0 STARLINK-4612,1 53750U 22107BC  22296.91667824 -.00109479  00000-0 -69562-2 0  9998,2 53750  53.2180  38.4911 0001373  66.9650 273.5955 15.08894266  1302,6917.715,95.434,540.529,538.63,0.0
53750.0,STARLINK-4612,PAYLOAD,2022-10-24 06:00:00,15.08815619,0.0001250999999999,53.2183,36.9938,74.7148,277.4667,-0.0023594,-0.00037617,0.0,0 STARLINK-4612,1 53750U 22107BC  22297.25001157 -.00037617  00000-0 -23594-2 0  9996,2 53750  53.2183  36.9938 0001251  74.7148 277.4667 15.08815619  7754,6917.955,95.439,540.685,538.9540000000002,0.0
53750.0,STARLINK-4612,PAYLOAD,2022-10-24 14:00:01,15.08770699,0.0001351,53.2182,35.4995,65.3704,298.3586,0.0030844,0.00049049,0.0,0 STARLINK-4612,1 53750U 22107BC  22297.58334491  .00049049  00000-0  30844-2 0  9998,2 53750  53.2182  35.4995 0001351  65.3704 298.3586 15.08770699  1300,6918.092,95.442,540.8919999999998,539.023,0.0
53750.0,STARLINK-4612,PAYLOAD,2022-10-24 22:00:00,15.08823115,0.0001308,53.2178,34.0025,65.3398,309.9164,0.0011970999999999,0.00018806,0.0,0 STARLINK-4612,1 53750U 22107BC  22297.91667824  .00018806  00000-0  11971-2 0  9991,2 53750  53.2178  34.0025 0001308  65.3398 309.9164 15.08823115  1308,6917.932,95.439,540.702,538.8919999999998,0.0
53750.0,STARLINK-4612,PAYLOAD,2022-10-25 14:00:01,15.08830557,0.0001333,53.2179,31.011,63.7858,334.6619,-0.00012535,-2.282e-05,0.0,0 STARLINK-4612,1 53750U 22107BC  22298.58334491 -.00002282  00000-0 -12535-3 0  9997,2 53750  53.2179  31.0110 0001333  63.7858 334.6619 15.08830557  1300,6917.909000000002,95.438,540.696,538.852,0.0
53750.0,STARLINK-4612,PAYLOAD,2022-10-25 22:00:01,15.08852039,0.0001252,53.2176,29.5138,63.3435,346.7468,-0.0014456,-0.00023228,0.0,0 STARLINK-4612,1 53750U 22107BC  22298.91668981 -.00023228  00000-0 -14456-2 0  9994,2 53750  53.2176  29.5138 0001252  63.3435 346.7468 15.08852039  8005,6917.844,95.437,540.575,538.842,0.0
53750.0,STARLINK-4612,PAYLOAD,2022-10-26 14:00:01,15.08851346,0.0001391,53.2177,26.5223,61.1662,12.0668,0.00036604,5.544e-05,0.0,0 STARLINK-4612,1 53750U 22107BC  22299.58334491  .00005544  00000-0  36604-3 0  9993,2 53750  53.2177  26.5223 0001391  61.1662  12.0668 15.08851346  8106,6917.846,95.437,540.673,538.748,0.0
53750.0,STARLINK-4612,PAYLOAD,2022-10-26 22:00:00,15.08871383,0.0001361999999999,53.2176,25.0249,62.5962,22.2483,-0.0032928,-0.00052357,0.0,0 STARLINK-4612,1 53750U 22107BC  22299.91667824 -.00052357  00000-0 -32928-2 0  9999,2 53750  53.2176  25.0249 0001362  62.5962  22.2483 15.08871383  1309,6917.784000000002,95.436,540.592,538.707,0.0
